{
  "type": "FeatureCollection",
  "features": [
    {
      "type": "Feature",
      "properties": {
        "norad_id": 28054,
        "name": "DMSP 5D-3 F16 (USA 172)",
        "group": "weather",
        "lat": 37.10744052299114,
        "lon": 9.52564057494479,
        "alt_km": 843.4758419801656,
        "timestamp": "2025-12-24T20:42:20.661552+00:00",
        "meta_object_name": "DMSP 5D-3 F16 (USA 172)",
        "meta_object_id": "2003-048A",
        "meta_epoch": "2025-12-24T05:32:42.868608",
        "meta_mean_motion": 14.14428192,
        "meta_eccentricity": 0.00062524,
        "meta_inclination": 99.0038,
        "meta_ra_of_asc_node": 15.778,
        "meta_arg_of_pericenter": 284.0188,
        "meta_mean_anomaly": 138.9259,
        "meta_ephemeris_type": 0,
        "meta_classification_type": "U",
        "meta_norad_cat_id": 28054,
        "meta_element_set_no": 999,
        "meta_rev_at_epoch": 14475,
        "meta_bstar": 8.1438634e-05,
        "meta_mean_motion_dot": 1.1e-06,
        "meta_mean_motion_ddot": 0,
        "tle_line1": "1 28054U 03048A   25358.23105172  .00000110  00000+0  81439-4 0  9998",
        "tle_line2": "2 28054  99.0038  15.7780 0006252 284.0188 138.9259 14.14428192144758"
      },
      "geometry": {
        "type": "Point",
        "coordinates": [
          9.52564057494479,
          37.10744052299114
        ]
      }
    },
    {
      "type": "Feature",
      "properties": {
        "norad_id": 28912,
        "name": "METEOSAT-9 (MSG-2)",
        "group": "weather",
        "lat": 5.002910332839842,
        "lon": 89.47492185017576,
        "alt_km": 35880.241457654854,
        "timestamp": "2025-12-24T20:42:20.661601+00:00",
        "meta_object_name": "METEOSAT-9 (MSG-2)",
        "meta_object_id": "2005-049B",
        "meta_epoch": "2025-12-23T18:29:06.029088",
        "meta_mean_motion": 1.00268078,
        "meta_eccentricity": 0.00595948,
        "meta_inclination": 8.9546,
        "meta_ra_of_asc_node": 55.8585,
        "meta_arg_of_pericenter": 281.8406,
        "meta_mean_anomaly": 77.1031,
        "meta_ephemeris_type": 0,
        "meta_classification_type": "U",
        "meta_norad_cat_id": 28912,
        "meta_element_set_no": 999,
        "meta_rev_at_epoch": 523,
        "meta_bstar": 0,
        "meta_mean_motion_dot": 1.44e-06,
        "meta_mean_motion_ddot": 0,
        "tle_line1": "1 28912U 05049B   25357.77020867  .00000144  00000+0  00000+0 0  9996",
        "tle_line2": "2 28912   8.9546  55.8585 0059594 281.8406  77.1031  1.00268078  5234"
      },
      "geometry": {
        "type": "Point",
        "coordinates": [
          89.47492185017576,
          5.002910332839842
        ]
      }
    },
    {
      "type": "Feature",
      "properties": {
        "norad_id": 29522,
        "name": "DMSP 5D-3 F17 (USA 191)",
        "group": "weather",
        "lat": -0.7013433658479845,
        "lon": 4.107263774358208,
        "alt_km": 852.6239587481114,
        "timestamp": "2025-12-24T20:42:20.661618+00:00",
        "meta_object_name": "DMSP 5D-3 F17 (USA 191)",
        "meta_object_id": "2006-050A",
        "meta_epoch": "2025-12-24T07:07:54.623136",
        "meta_mean_motion": 14.14924384,
        "meta_eccentricity": 0.00099045,
        "meta_inclination": 98.7392,
        "meta_ra_of_asc_node": 3.4456,
        "meta_arg_of_pericenter": 190.3701,
        "meta_mean_anomaly": 169.727,
        "meta_ephemeris_type": 0,
        "meta_classification_type": "U",
        "meta_norad_cat_id": 29522,
        "meta_element_set_no": 999,
        "meta_rev_at_epoch": 98768,
        "meta_bstar": 9.9210704e-05,
        "meta_mean_motion_dot": 1.49e-06,
        "meta_mean_motion_ddot": 0,
        "tle_line1": "1 29522U 06050A   25358.29715999  .00000149  00000+0  99211-4 0  9994",
        "tle_line2": "2 29522  98.7392   3.4456 0009904 190.3701 169.7270 14.14924384987685"
      },
      "geometry": {
        "type": "Point",
        "coordinates": [
          4.107263774358208,
          -0.7013433658479845
        ]
      }
    },
    {
      "type": "Feature",
      "properties": {
        "norad_id": 32958,
        "name": "FENGYUN 3A",
        "group": "weather",
        "lat": -80.62153544074933,
        "lon": 5.650744415119524,
        "alt_km": 828.8272973077792,
        "timestamp": "2025-12-24T20:42:20.661631+00:00",
        "meta_object_name": "FENGYUN 3A",
        "meta_object_id": "2008-026A",
        "meta_epoch": "2025-12-24T02:30:13.083840",
        "meta_mean_motion": 14.19517967,
        "meta_eccentricity": 0.00076164,
        "meta_inclination": 98.6714,
        "meta_ra_of_asc_node": 297.3926,
        "meta_arg_of_pericenter": 273.6201,
        "meta_mean_anomaly": 86.4104,
        "meta_ephemeris_type": 0,
        "meta_classification_type": "U",
        "meta_norad_cat_id": 32958,
        "meta_element_set_no": 999,
        "meta_rev_at_epoch": 91056,
        "meta_bstar": 7.2115529e-05,
        "meta_mean_motion_dot": 1.09e-06,
        "meta_mean_motion_ddot": 0,
        "tle_line1": "1 32958U 08026A   25358.10431810  .00000109  00000+0  72116-4 0  9994",
        "tle_line2": "2 32958  98.6714 297.3926 0007616 273.6201  86.4104 14.19517967910567"
      },
      "geometry": {
        "type": "Point",
        "coordinates": [
          5.650744415119524,
          -80.62153544074933
        ]
      }
    },
    {
      "type": "Feature",
      "properties": {
        "norad_id": 35491,
        "name": "GOES 14",
        "group": "weather",
        "lat": -0.4742026302409329,
        "lon": -73.1849107098605,
        "alt_km": 35832.57958980089,
        "timestamp": "2025-12-24T20:42:20.661645+00:00",
        "meta_object_name": "GOES 14",
        "meta_object_id": "2009-033A",
        "meta_epoch": "2025-12-24T05:59:38.935680",
        "meta_mean_motion": 1.00097036,
        "meta_eccentricity": 6.261e-05,
        "meta_inclination": 1.2319,
        "meta_ra_of_asc_node": 85.2877,
        "meta_arg_of_pericenter": 190.0306,
        "meta_mean_anomaly": 150.6123,
        "meta_ephemeris_type": 0,
        "meta_classification_type": "U",
        "meta_norad_cat_id": 35491,
        "meta_element_set_no": 999,
        "meta_rev_at_epoch": 483,
        "meta_bstar": 0,
        "meta_mean_motion_dot": 3.3e-07,
        "meta_mean_motion_ddot": 0,
        "tle_line1": "1 35491U 09033A   25358.24975620  .00000033  00000+0  00000+0 0  9999",
        "tle_line2": "2 35491   1.2319  85.2877 0000626 190.0306 150.6123  1.00097036  4839"
      },
      "geometry": {
        "type": "Point",
        "coordinates": [
          -73.1849107098605,
          -0.4742026302409329
        ]
      }
    },
    {
      "type": "Feature",
      "properties": {
        "norad_id": 35951,
        "name": "DMSP 5D-3 F18 (USA 210)",
        "group": "weather",
        "lat": -39.92669525663322,
        "lon": 147.68124115607495,
        "alt_km": 857.8716879807371,
        "timestamp": "2025-12-24T20:42:20.661658+00:00",
        "meta_object_name": "DMSP 5D-3 F18 (USA 210)",
        "meta_object_id": "2009-057A",
        "meta_epoch": "2025-12-24T06:05:19.249728",
        "meta_mean_motion": 14.14776659,
        "meta_eccentricity": 0.00117334,
        "meta_inclination": 98.8848,
        "meta_ra_of_asc_node": 334.5976,
        "meta_arg_of_pericenter": 32.3451,
        "meta_mean_anomaly": 327.8439,
        "meta_ephemeris_type": 0,
        "meta_classification_type": "U",
        "meta_norad_cat_id": 35951,
        "meta_element_set_no": 999,
        "meta_rev_at_epoch": 83485,
        "meta_bstar": 0.00016334559,
        "meta_mean_motion_dot": 2.71e-06,
        "meta_mean_motion_ddot": 0,
        "tle_line1": "1 35951U 09057A   25358.25369502  .00000271  00000+0  16335-3 0  9999",
        "tle_line2": "2 35951  98.8848 334.5976 0011733  32.3451 327.8439 14.14776659834854"
      },
      "geometry": {
        "type": "Point",
        "coordinates": [
          147.68124115607495,
          -39.92669525663322
        ]
      }
    },
    {
      "type": "Feature",
      "properties": {
        "norad_id": 36411,
        "name": "EWS-G2 (GOES 15)",
        "group": "weather",
        "lat": 0.30210307292360905,
        "lon": 105.5405960003931,
        "alt_km": 35808.2146526701,
        "timestamp": "2025-12-24T20:42:20.661672+00:00",
        "meta_object_name": "EWS-G2 (GOES 15)",
        "meta_object_id": "2010-008A",
        "meta_epoch": "2025-12-24T04:49:52.660416",
        "meta_mean_motion": 1.00271078,
        "meta_eccentricity": 0.0005556,
        "meta_inclination": 0.8402,
        "meta_ra_of_asc_node": 86.0683,
        "meta_arg_of_pericenter": 178.7638,
        "meta_mean_anomaly": 321.9717,
        "meta_ephemeris_type": 0,
        "meta_classification_type": "U",
        "meta_norad_cat_id": 36411,
        "meta_element_set_no": 999,
        "meta_rev_at_epoch": 5788,
        "meta_bstar": 0,
        "meta_mean_motion_dot": 5.9e-07,
        "meta_mean_motion_ddot": 0,
        "tle_line1": "1 36411U 10008A   25358.20130394  .00000059  00000+0  00000+0 0  9991",
        "tle_line2": "2 36411   0.8402  86.0683 0005556 178.7638 321.9717  1.00271078 57887"
      },
      "geometry": {
        "type": "Point",
        "coordinates": [
          105.5405960003931,
          0.30210307292360905
        ]
      }
    }
  ]
}